ORBCOMM FM33            
1 25983U 99065D   26003.07232236  .00002494  00000+0  81917-3 0  9999
2 25983  45.0271 128.2479 0007143 342.4392  17.6210 14.40599165364883
ORBCOMM FM36            
1 25984U 99065E   26003.01637321  .00002262  00000+0  77535-3 0  9992
2 25984  45.0368 223.4697 0002241 226.5698 133.4965 14.38778843363192
ORBCOMM FM35            
1 25985U 99065F   26003.00454451  .00001895  00000+0  67176-3 0  9994
2 25985  45.0382 230.1916 0003949 327.9444  32.1164 14.37680923363533
ORBCOMM FM34            
1 25986U 99065G   26003.04141332  .00001478  00000+0  53486-3 0  9996
2 25986  45.0377 230.4925 0003458 277.5447  82.5008 14.37621691363655
ORBCOMM FM38            
1 33060U 08031A   25351.76850136  .00001404  00000+0  20080-3 0  9997
2 33060  48.4372 159.8035 0004435 120.0486 240.0870 14.82282580941971
ORBCOMM FM41            
1 33061U 08031B   26002.97196157  .00003760  00000+0  49615-3 0  9993
2 33061  48.4430  90.9511 0003868 179.4467 350.7776 14.81935402943857
ORBCOMM FM29            
1 33062U 08031C   26003.00710381  .00004466  00000+0  58199-3 0  9991
2 33062  48.4381  98.3198 0005524 175.0614 354.8435 14.82090314943776
ORBCOMM FM39            
1 33063U 08031D   26002.73650088  .00004121  00000+0  55963-3 0  9992
2 33063  48.4386 126.1537 0006209 140.3062 219.8308 14.80508853943355
